{
  "type": "FeatureCollection",
  "features": [
    {
      "type": "Feature",
      "properties": {
        "norad_id": 67019,
        "name": "STARLINK-35688",
        "group": "last-30-days",
        "lat": -29.688476012008433,
        "lon": 112.7723885384041,
        "alt_km": 366.58853228834505,
        "timestamp": "2025-12-27T15:27:09.833170+00:00",
        "meta_object_name": "STARLINK-35688",
        "meta_object_id": "2025-293S",
        "meta_epoch": "2025-12-27T06:00:02.000160",
        "meta_mean_motion": 15.70189952,
        "meta_eccentricity": 0.00032871,
        "meta_inclination": 69.9975,
        "meta_ra_of_asc_node": 281.8916,
        "meta_arg_of_pericenter": 271.2141,
        "meta_mean_anomaly": 235.9384,
        "meta_ephemeris_type": 0,
        "meta_classification_type": "U",
        "meta_norad_cat_id": 67019,
        "meta_element_set_no": 999,
        "meta_rev_at_epoch": 263,
        "meta_bstar": -0.015023939,
        "meta_mean_motion_dot": -0.01622624,
        "meta_mean_motion_ddot": 0,
        "tle_line1": "1 67019U 25293S   25361.25002315 -.01622624  00000+0 -15024-1 0  9996",
        "tle_line2": "2 67019  69.9975 281.8916 0003287 271.2141 235.9384 15.70189952  2635"
      },
      "geometry": {
        "type": "Point",
        "coordinates": [
          112.7723885384041,
          -29.688476012008433
        ]
      }
    },
    {
      "type": "Feature",
      "properties": {
        "norad_id": 67020,
        "name": "STARLINK-36172",
        "group": "last-30-days",
        "lat": -31.88112124727775,
        "lon": 113.8787966590624,
        "alt_km": 366.7182760986234,
        "timestamp": "2025-12-27T15:27:09.833180+00:00",
        "meta_object_name": "STARLINK-36172",
        "meta_object_id": "2025-293T",
        "meta_epoch": "2025-12-27T06:00:02.000160",
        "meta_mean_motion": 15.7016299,
        "meta_eccentricity": 0.00033933,
        "meta_inclination": 69.9977,
        "meta_ra_of_asc_node": 281.8891,
        "meta_arg_of_pericenter": 271.9719,
        "meta_mean_anomaly": 237.6138,
        "meta_ephemeris_type": 0,
        "meta_classification_type": "U",
        "meta_norad_cat_id": 67020,
        "meta_element_set_no": 999,
        "meta_rev_at_epoch": 255,
        "meta_bstar": -0.015061433,
        "meta_mean_motion_dot": -0.01624675,
        "meta_mean_motion_ddot": 0,
        "tle_line1": "1 67020U 25293T   25361.25002315 -.01624675  00000+0 -15061-1 0  9997",
        "tle_line2": "2 67020  69.9977 281.8891 0003393 271.9719 237.6138 15.70162990  2557"
      },
      "geometry": {
        "type": "Point",
        "coordinates": [
          113.8787966590624,
          -31.88112124727775
        ]
      }
    },
    {
      "type": "Feature",
      "properties": {
        "norad_id": 67021,
        "name": "STARLINK-36184",
        "group": "last-30-days",
        "lat": -33.9614539673604,
        "lon": 114.98301328390886,
        "alt_km": 366.8405363626507,
        "timestamp": "2025-12-27T15:27:09.833192+00:00",
        "meta_object_name": "STARLINK-36184",
        "meta_object_id": "2025-293U",
        "meta_epoch": "2025-12-27T06:00:02.000160",
        "meta_mean_motion": 15.70140715,
        "meta_eccentricity": 0.00033091,
        "meta_inclination": 69.9978,
        "meta_ra_of_asc_node": 281.8863,
        "meta_arg_of_pericenter": 271.1594,
        "meta_mean_anomaly": 240.7378,
        "meta_ephemeris_type": 0,
        "meta_classification_type": "U",
        "meta_norad_cat_id": 67021,
        "meta_element_set_no": 999,
        "meta_rev_at_epoch": 255,
        "meta_bstar": -0.015089407,
        "meta_mean_motion_dot": -0.01625939,
        "meta_mean_motion_ddot": 0,
        "tle_line1": "1 67021U 25293U   25361.25002315 -.01625939  00000+0 -15089-1 0  9992",
        "tle_line2": "2 67021  69.9978 281.8863 0003309 271.1594 240.7378 15.70140715  2550"
      },
      "geometry": {
        "type": "Point",
        "coordinates": [
          114.98301328390886,
          -33.9614539673604
        ]
      }
    },
    {
      "type": "Feature",
      "properties": {
        "norad_id": 67022,
        "name": "STARLINK-36209",
        "group": "last-30-days",
        "lat": -36.20569874529737,
        "lon": 116.24356471088804,
        "alt_km": 366.96246233120564,
        "timestamp": "2025-12-27T15:27:09.833205+00:00",
        "meta_object_name": "STARLINK-36209",
        "meta_object_id": "2025-293V",
        "meta_epoch": "2025-12-27T06:00:02.000160",
        "meta_mean_motion": 15.7010656,
        "meta_eccentricity": 0.00033252,
        "meta_inclination": 69.9974,
        "meta_ra_of_asc_node": 281.8831,
        "meta_arg_of_pericenter": 270.7083,
        "meta_mean_anomaly": 243.71,
        "meta_ephemeris_type": 0,
        "meta_classification_type": "U",
        "meta_norad_cat_id": 67022,
        "meta_element_set_no": 999,
        "meta_rev_at_epoch": 255,
        "meta_bstar": -0.015106024,
        "meta_mean_motion_dot": -0.01625476,
        "meta_mean_motion_ddot": 0,
        "tle_line1": "1 67022U 25293V   25361.25002315 -.01625476  00000+0 -15106-1 0  9999",
        "tle_line2": "2 67022  69.9974 281.8831 0003325 270.7083 243.7100 15.70106560  2554"
      },
      "geometry": {
        "type": "Point",
        "coordinates": [
          116.24356471088804,
          -36.20569874529737
        ]
      }
    },
    {
      "type": "Feature",
      "properties": {
        "norad_id": 67023,
        "name": "STARLINK-36191",
        "group": "last-30-days",
        "lat": -38.216122604695855,
        "lon": 117.44205913890714,
        "alt_km": 366.93890446886144,
        "timestamp": "2025-12-27T15:27:09.833217+00:00",
        "meta_object_name": "STARLINK-36191",
        "meta_object_id": "2025-293W",
        "meta_epoch": "2025-12-27T06:00:02.000160",
        "meta_mean_motion": 15.70087148,
        "meta_eccentricity": 0.00034667,
        "meta_inclination": 69.9975,
        "meta_ra_of_asc_node": 281.8797,
        "meta_arg_of_pericenter": 269.1679,
        "meta_mean_anomaly": 247.5068,
        "meta_ephemeris_type": 0,
        "meta_classification_type": "U",
        "meta_norad_cat_id": 67023,
        "meta_element_set_no": 999,
        "meta_rev_at_epoch": 244,
        "meta_bstar": -0.015114013,
        "meta_mean_motion_dot": -0.01625179,
        "meta_mean_motion_ddot": 0,
        "tle_line1": "1 67023U 25293W   25361.25002315 -.01625179  00000+0 -15114-1 0  9999",
        "tle_line2": "2 67023  69.9975 281.8797 0003466 269.1679 247.5068 15.70087148  2449"
      },
      "geometry": {
        "type": "Point",
        "coordinates": [
          117.44205913890714,
          -38.216122604695855
        ]
      }
    },
    {
      "type": "Feature",
      "properties": {
        "norad_id": 67024,
        "name": "STARLINK-36192",
        "group": "last-30-days",
        "lat": -40.34478463912589,
        "lon": 118.79608369476003,
        "alt_km": 367.1569139293806,
        "timestamp": "2025-12-27T15:27:09.833230+00:00",
        "meta_object_name": "STARLINK-36192",
        "meta_object_id": "2025-293X",
        "meta_epoch": "2025-12-27T06:00:02.000160",
        "meta_mean_motion": 15.70057204,
        "meta_eccentricity": 0.0003334,
        "meta_inclination": 69.9977,
        "meta_ra_of_asc_node": 281.8775,
        "meta_arg_of_pericenter": 270.6269,
        "meta_mean_anomaly": 248.4641,
        "meta_ephemeris_type": 0,
        "meta_classification_type": "U",
        "meta_norad_cat_id": 67024,
        "meta_element_set_no": 999,
        "meta_rev_at_epoch": 255,
        "meta_bstar": -0.015113147,
        "meta_mean_motion_dot": -0.0162318,
        "meta_mean_motion_ddot": 0,
        "tle_line1": "1 67024U 25293X   25361.25002315 -.01623180  00000+0 -15113-1 0  9999",
        "tle_line2": "2 67024  69.9977 281.8775 0003334 270.6269 248.4641 15.70057204  2553"
      },
      "geometry": {
        "type": "Point",
        "coordinates": [
          118.79608369476003,
          -40.34478463912589
        ]
      }
    },
    {
      "type": "Feature",
      "properties": {
        "norad_id": 67025,
        "name": "STARLINK-36178",
        "group": "last-30-days",
        "lat": -42.24682831815567,
        "lon": 120.08941696581239,
        "alt_km": 367.25475427501806,
        "timestamp": "2025-12-27T15:27:09.833240+00:00",
        "meta_object_name": "STARLINK-36178",
        "meta_object_id": "2025-293Y",
        "meta_epoch": "2025-12-27T06:00:02.000160",
        "meta_mean_motion": 15.70044071,
        "meta_eccentricity": 0.00032823,
        "meta_inclination": 69.9975,
        "meta_ra_of_asc_node": 281.8745,
        "meta_arg_of_pericenter": 270.9764,
        "meta_mean_anomaly": 250.2725,
        "meta_ephemeris_type": 0,
        "meta_classification_type": "U",
        "meta_norad_cat_id": 67025,
        "meta_element_set_no": 999,
        "meta_rev_at_epoch": 255,
        "meta_bstar": -0.015130456,
        "meta_mean_motion_dot": -0.01623997,
        "meta_mean_motion_ddot": 0,
        "tle_line1": "1 67025U 25293Y   25361.25002315 -.01623997  00000+0 -15130-1 0  9995",
        "tle_line2": "2 67025  69.9975 281.8745 0003282 270.9764 250.2725 15.70044071  2556"
      },
      "geometry": {
        "type": "Point",
        "coordinates": [
          120.08941696581239,
          -42.24682831815567
        ]
      }
    }
  ]
}